OBJECT_NAME,OBJECT_ID,EPOCH,MEAN_MOTION,ECCENTRICITY,INCLINATION,RA_OF_ASC_NODE,ARG_OF_PERICENTER,MEAN_ANOMALY,EPHEMERIS_TYPE,CLASSIFICATION_TYPE,NORAD_CAT_ID,ELEMENT_SET_NO,REV_AT_EPOCH,BSTAR,MEAN_MOTION_DOT,MEAN_MOTION_DDOT
FENGYUN 3D,2017-072A,2026-06-21T12:24:11.149344,14.19739395,.000249,99.0133,147.0175,55.5625,304.5785,0,U,43010,999,44560,-.52975E-4,-.158E-5,0
NOAA 20 (JPSS-1),2017-073A,2026-06-20T09:13:56.345088,14.19512290,.0000383,98.7771,110.8189,117.6624,242.4591,0,U,43013,999,44492,.42637E-4,.46E-6,0
GOES 17,2018-022A,2026-06-20T09:20:38.499936,1.00269480,.0000598,0.9463,85.6559,28.1563,205.4138,0,U,43226,999,3045,0,-.187E-5,0
SENTINEL-3B,2018-039A,2026-06-20T09:58:35.272992,14.26735540,.0000727,98.6248,238.9017,94.6800,265.4463,0,U,43437,999,42458,.48499E-4,.74E-6,0
FENGYUN 2H,2018-050A,2026-06-21T13:09:43.725600,1.00269411,.0001805,3.0437,79.0286,136.1614,331.3565,0,U,43491,999,2948,0,-.131E-5,0
METOP-C,2018-087A,2026-06-20T10:43:09.820416,14.21512882,.000188,98.6643,230.9907,125.1991,234.9363,0,U,43689,999,39529,.49212E-4,.64E-6,0
GEO-KOMPSAT-2A,2018-100A,2026-06-20T10:01:04.427040,1.00272261,.000217,0.0473,151.2642,295.2838,100.6088,0,U,43823,999,2766,0,-.348E-5,0
METEOR-M2 2,2019-038A,2026-06-21T12:42:44.930880,14.24366528,.0001904,98.9151,159.8796,41.8346,318.2978,0,U,44387,999,36191,.22237E-4,.5E-7,0
ARKTIKA-M 1,2021-016A,2026-06-17T11:46:36.471360,2.00622504,.72885287,63.2922,57.5948,269.9420,14.6012,0,U,47719,999,3879,0,-.21E-5,0
FENGYUN 3E,2021-062A,2026-06-21T12:00:15.476832,14.19904829,.0002823,98.7495,175.8605,78.9678,281.1816,0,U,49008,999,25719,.10675E-3,.183E-5,0
GOES 18,2022-021A,2026-06-19T22:29:21.715296,1.00271950,.00004251,0.0372,171.7340,325.4670,331.2805,0,U,51850,999,662,0,.91E-6,0
NOAA 21 (JPSS-2),2022-150A,2026-06-20T10:01:08.949216,14.19565986,.0001836,98.7059,110.1525,147.2077,212.9214,0,U,54234,999,18700,.4159E-4,.44E-6,0
METEOSAT-12 (MTG-I1),2022-170C,2026-06-20T05:59:05.580960,1.00273524,.000332,0.7421,23.5307,70.9892,263.3203,0,U,54743,999,1300,0,-.13E-6,0
TIANMU-1 03,2023-039A,2026-06-21T12:17:48.499296,15.47392330,.0004082,97.5243,346.6508,88.7124,271.4593,0,U,55973,999,18150,.25107E-3,.1276E-3,0
TIANMU-1 04,2023-039B,2026-06-21T12:00:14.848704,15.47992980,.0004718,97.5177,345.7923,83.9821,276.1966,0,U,55974,999,18151,.25608E-3,.13293E-3,0
TIANMU-1 05,2023-039C,2026-06-21T11:50:24.563040,15.47316256,.0004106,97.5221,346.2447,104.9703,255.2001,0,U,55975,999,18148,.24893E-3,.12617E-3,0
TIANMU-1 06,2023-039D,2026-06-21T12:05:29.963328,15.47896063,.0004324,97.5229,346.8955,99.6322,260.5416,0,U,55976,999,18151,.25487E-3,.13184E-3,0
FENGYUN 3G,2023-055A,2026-06-21T11:34:55.013952,15.52798254,.0007121,49.9935,323.8862,314.2701,45.7681,0,U,56232,999,18067,.32143E-3,.19904E-3,0
METEOR-M2 3,2023-091A,2026-06-21T12:35:59.639712,14.24047159,.0004589,98.6080,227.4146,144.4775,215.6710,0,U,57166,999,15513,.16221E-4,-.6E-7,0
TIANMU-1 07,2023-101A,2026-06-21T11:34:52.219776,15.29848940,.0004274,97.2589,223.0524,112.8221,247.3472,0,U,57399,999,16230,.17043E-3,.4853E-4,0
TIANMU-1 08,2023-101B,2026-06-21T12:21:00.295200,15.29854432,.0005687,97.2578,222.8538,104.7184,255.4688,0,U,57400,999,16230,.1787E-3,.5094E-4,0
TIANMU-1 09,2023-101C,2026-06-21T11:56:59.670240,15.29886210,.0004785,97.2536,222.2510,117.1207,243.0522,0,U,57401,999,16230,.18018E-3,.5141E-4,0
TIANMU-1 10,2023-101D,2026-06-21T11:10:30.876960,15.29857439,.0006346,97.2615,223.2743,115.1029,245.0871,0,U,57402,999,16229,.17632E-3,.5026E-4,0
FENGYUN 3F,2023-111A,2026-06-21T11:36:57.238848,14.19939702,.0001582,98.6835,242.4127,90.3874,269.7484,0,U,57490,999,14947,.25698E-4,.11E-6,0
ARKTIKA-M 2,2023-198A,2026-06-17T18:13:15.259296,2.00612717,.69023443,63.2243,154.2920,267.4286,18.7609,0,U,58584,999,1833,0,.145E-5,0
TIANMU-1 11,2023-205A,2026-06-21T12:13:41.244096,15.27032570,.0008423,97.3448,193.9985,2.1524,357.9750,0,U,58645,999,13818,.16121E-3,.4206E-4,0
TIANMU-1 12,2023-205B,2026-06-21T13:05:31.252704,15.26998880,.0006195,97.3438,193.7888,347.6663,12.4424,0,U,58646,999,13817,.17246E-3,.4499E-4,0
TIANMU-1 13,2023-205C,2026-06-21T12:18:05.527008,15.26851187,.0005433,97.3464,194.0296,323.2905,36.7961,0,U,58647,999,13816,.16517E-3,.4285E-4,0
TIANMU-1 14,2023-205D,2026-06-21T11:56:36.433824,15.26895930,.0006382,97.3401,193.1933,328.1981,31.8872,0,U,58648,999,13816,.16465E-3,.4278E-4,0
TIANMU-1 19,2023-208A,2026-06-21T09:40:16.103424,15.31627133,.0003546,97.4505,288.7245,308.1636,51.9285,0,U,58660,999,13797,.21646E-3,.6532E-4,0
TIANMU-1 20,2023-208B,2026-06-21T13:37:59.418912,15.32819357,.0005732,97.4447,289.5303,315.3365,44.7415,0,U,58661,999,13809,.20107E-3,.6296E-4,0
